SL-3 R/B                
1 19046U 88032B   26083.47890289  .00004850  00000+0  22606-3 0  9992
2 19046  97.5215  66.6813 0025855 178.2521 181.8808 15.20069216 54355
SL-16 R/B               
1 19120U 88039B   26083.21375213 -.00000012  00000+0  17069-4 0  9994
2 19120  71.0159  37.8346 0023457 313.4389  46.4784 14.19617815960440
COSMOS 1953             
1 19210U 88050A   26083.41946975  .00006435  00000+0  22858-3 0  9993
2 19210  82.5081 143.4314 0012518  76.5678 283.6956 15.28755724 40037
SL-8 R/B                
1 19257U 88053B   26083.48503543  .00000318  00000+0  11157-3 0  9998
2 19257  74.0451  85.1913 0021522 262.5429 261.1004 14.38925664978721
COSMOS 1975             
1 19573U 88093A   26083.45779592  .00006297  00000+0  22699-3 0  9994
2 19573  82.5167 102.8551 0013242 115.7677 244.4931 15.28263221 21668
SL-14 R/B               
1 19574U 88093B   26083.22122615  .00000600  00000+0  66200-4 0  9997
2 19574  82.5333  28.4039 0020525 354.6351 125.4614 14.85673352  3177
SL-16 R/B               
1 19650U 88102B   26083.38505450 -.00000238  00000+0 -96129-4 0  9994
2 19650  70.9980 120.5774 0014933 339.1000  20.9511 14.16154852928978
INTERCOSMOS 24          
1 20261U 89080A   26083.41788401  .00000549  00000+0  16295-3 0  9991
2 20261  82.6013  94.8104 1186772 258.6018  87.9736 12.59577279668656
SL-14 R/B               
1 20262U 89080C   26083.51938394  .00000416  00000+0  11748-3 0  9992
2 20262  82.5964 163.6703 1230866 150.8692 216.7189 12.50508212662005
DELTA 1 R/B             
1 20323U 89089B   26083.51955103  .00000312  00000+0  85568-4 0  9993
2 20323  97.0694 288.5982 0070657  76.0573 284.8471 14.50674837897881
ARIANE 40 R/B           
1 20443U 90005H   26083.40661718  .00000272  00000+0  10000-3 0  9993
2 20443  98.3053 143.6274 0010764 154.8964 205.2750 14.39879774894927
DELTA 2 R/B(1)          
1 20453U 90008B   26082.29022841  .00073697  00000+0  82029-3 0  9992
2 20453  35.6034  85.4758 0079944  25.1791 335.2813 15.57716328928258
